     3.04           N: GNSS NAV DATA    M: MIXED            RINEX VERSION / TYPE
sbf2rin-15.10.3                         20250710 083332 UTC PGM / RUN BY / DATE 
GPSA   9.3132E-09  2.2352E-08 -5.9605E-08 -1.1921E-07       IONOSPHERIC CORR    
GPSB   9.8304E+04  1.4746E+05 -6.5536E+04 -4.5875E+05       IONOSPHERIC CORR    
GAL    1.1300E+02  2.6563E-01  1.6296E-02  0.0000E+00       IONOSPHERIC CORR    
GPUT -5.5879354477E-09-5.329070518E-15 503808 2374          TIME SYSTEM CORR    
GAUT  9.3132257462E-10 0.000000000E+00 345600 2374          TIME SYSTEM CORR    
GAGP  4.9476511776E-09 8.437694987E-15 345600 2374          TIME SYSTEM CORR    
    18                                                      LEAP SECONDS        
                                                            END OF HEADER       
E36 2025 07 10 05 10 00-4.208130994812E-04-5.400124791777E-12 0.000000000000E+00
     9.900000000000E+01 1.388437500000E+02 2.692969315838E-09 2.219057834266E+00
     6.349757313728E-06 1.228621695191E-04-9.853392839432E-07 5.440603555679E+03
     3.642000000000E+05-2.980232238770E-08 1.166692354768E+00 1.117587089539E-08
     9.992779218107E-01 3.775312500000E+02 7.288038638006E-01-5.725952794632E-09
     1.364342544629E-10 2.580000000000E+02 2.374000000000E+03
     3.120000000000E+00 0.000000000000E+00 4.656612873077E-09 0.000000000000E+00
     3.650700000000E+05
